[
    {
        "OBJECT_NAME": "SHIJIAN-16 (SJ-16)",
        "OBJECT_ID": "2013-057A",
        "EPOCH": "2026-06-13T21:18:45.678816",
        "MEAN_MOTION": 14.92598953,
        "ECCENTRICITY": 0.0016839,
        "INCLINATION": 74.9733,
        "RA_OF_ASC_NODE": 2.9329,
        "ARG_OF_PERICENTER": 238.5368,
        "MEAN_ANOMALY": 121.4175,
        "EPHEMERIS_TYPE": 0,
        "CLASSIFICATION_TYPE": "U",
        "NORAD_CAT_ID": 39358,
        "ELEMENT_SET_NO": 999,
        "REV_AT_EPOCH": 68585,
        "BSTAR": 4.1008e-05,
        "MEAN_MOTION_DOT": 3.93e-06,
        "MEAN_MOTION_DDOT": 0
    },
    {
        "OBJECT_NAME": "SL-4 R/B",
        "OBJECT_ID": "2014-021B",
        "EPOCH": "2026-06-13T10:25:33.143232",
        "MEAN_MOTION": 15.41884042,
        "ECCENTRICITY": 0.00913767,
        "INCLINATION": 51.6053,
        "RA_OF_ASC_NODE": 229.1564,
        "ARG_OF_PERICENTER": 92.2944,
        "MEAN_ANOMALY": 268.8507,
        "EPHEMERIS_TYPE": 0,
        "CLASSIFICATION_TYPE": "U",
        "NORAD_CAT_ID": 39679,
        "ELEMENT_SET_NO": 999,
        "REV_AT_EPOCH": 67103,
        "BSTAR": 0.00021837153,
        "MEAN_MOTION_DOT": 0.00010504,
        "MEAN_MOTION_DDOT": 0
    },
    {
        "OBJECT_NAME": "ALOS-2",
        "OBJECT_ID": "2014-029A",
        "EPOCH": "2026-06-13T19:48:13.650336",
        "MEAN_MOTION": 14.79477981,
        "ECCENTRICITY": 0.0001603,
        "INCLINATION": 97.9216,
        "RA_OF_ASC_NODE": 262.0365,
        "ARG_OF_PERICENTER": 89.5561,
        "MEAN_ANOMALY": 270.5834,
        "EPHEMERIS_TYPE": 0,
        "CLASSIFICATION_TYPE": "U",
        "NORAD_CAT_ID": 39766,
        "ELEMENT_SET_NO": 999,
        "REV_AT_EPOCH": 65108,
        "BSTAR": 0.00020749,
        "MEAN_MOTION_DOT": 1.499e-05,
        "MEAN_MOTION_DDOT": 0
    },
    {
        "OBJECT_NAME": "YAOGAN-29",
        "OBJECT_ID": "2015-069A",
        "EPOCH": "2026-06-13T20:55:29.900640",
        "MEAN_MOTION": 14.83081356,
        "ECCENTRICITY": 0.0002771,
        "INCLINATION": 98.0033,
        "RA_OF_ASC_NODE": 193.4992,
        "ARG_OF_PERICENTER": 59.3891,
        "MEAN_ANOMALY": 300.7595,
        "EPHEMERIS_TYPE": 0,
        "CLASSIFICATION_TYPE": "U",
        "NORAD_CAT_ID": 41038,
        "ELEMENT_SET_NO": 999,
        "REV_AT_EPOCH": 57013,
        "BSTAR": -4.2718e-06,
        "MEAN_MOTION_DOT": -8.9e-07,
        "MEAN_MOTION_DDOT": 0
    },
    {
        "OBJECT_NAME": "ASTRO-H (HITOMI)",
        "OBJECT_ID": "2016-012A",
        "EPOCH": "2026-06-13T12:46:03.181728",
        "MEAN_MOTION": 15.10496033,
        "ECCENTRICITY": 0.00097397,
        "INCLINATION": 30.9989,
        "RA_OF_ASC_NODE": 97.793,
        "ARG_OF_PERICENTER": 217.516,
        "MEAN_ANOMALY": 142.4799,
        "EPHEMERIS_TYPE": 0,
        "CLASSIFICATION_TYPE": "U",
        "NORAD_CAT_ID": 41337,
        "ELEMENT_SET_NO": 999,
        "REV_AT_EPOCH": 56673,
        "BSTAR": 0.00014179782,
        "MEAN_MOTION_DOT": 2.491e-05,
        "MEAN_MOTION_DDOT": 0
    },
    {
        "OBJECT_NAME": "HXMT (HUIYAN)",
        "OBJECT_ID": "2017-034A",
        "EPOCH": "2026-06-13T13:58:29.875008",
        "MEAN_MOTION": 15.18458559,
        "ECCENTRICITY": 0.0030272,
        "INCLINATION": 43.0128,
        "RA_OF_ASC_NODE": 203.1146,
        "ARG_OF_PERICENTER": 123.5004,
        "MEAN_ANOMALY": 236.8744,
        "EPHEMERIS_TYPE": 0,
        "CLASSIFICATION_TYPE": "U",
        "NORAD_CAT_ID": 42758,
        "ELEMENT_SET_NO": 999,
        "REV_AT_EPOCH": 49711,
        "BSTAR": 0.00019572,
        "MEAN_MOTION_DOT": 3.909e-05,
        "MEAN_MOTION_DDOT": 0
    },
    {
        "OBJECT_NAME": "SAOCOM 1A",
        "OBJECT_ID": "2018-076A",
        "EPOCH": "2026-06-13T19:52:19.439328",
        "MEAN_MOTION": 14.8214847,
        "ECCENTRICITY": 0.0001634,
        "INCLINATION": 97.8883,
        "RA_OF_ASC_NODE": 351.6262,
        "ARG_OF_PERICENTER": 78.9348,
        "MEAN_ANOMALY": 281.2049,
        "EPHEMERIS_TYPE": 0,
        "CLASSIFICATION_TYPE": "U",
        "NORAD_CAT_ID": 43641,
        "ELEMENT_SET_NO": 999,
        "REV_AT_EPOCH": 41560,
        "BSTAR": 0.00011655,
        "MEAN_MOTION_DOT": 8.76e-06,
        "MEAN_MOTION_DDOT": 0
    },
    {
        "OBJECT_NAME": "H-2A R/B",
        "OBJECT_ID": "2018-084L",
        "EPOCH": "2026-06-13T15:08:49.047936",
        "MEAN_MOTION": 15.45028112,
        "ECCENTRICITY": 0.002382,
        "INCLINATION": 98.859,
        "RA_OF_ASC_NODE": 42.7447,
        "ARG_OF_PERICENTER": 52.4165,
        "MEAN_ANOMALY": 307.9238,
        "EPHEMERIS_TYPE": 0,
        "CLASSIFICATION_TYPE": "U",
        "NORAD_CAT_ID": 43682,
        "ELEMENT_SET_NO": 999,
        "REV_AT_EPOCH": 42057,
        "BSTAR": 0.00044948,
        "MEAN_MOTION_DOT": 0.00021353,
        "MEAN_MOTION_DDOT": 0
    },
    {
        "OBJECT_NAME": "SAOCOM 1B",
        "OBJECT_ID": "2020-059A",
        "EPOCH": "2026-06-13T20:37:18.009408",
        "MEAN_MOTION": 14.82167419,
        "ECCENTRICITY": 0.0001478,
        "INCLINATION": 97.8885,
        "RA_OF_ASC_NODE": 350.7514,
        "ARG_OF_PERICENTER": 82.7253,
        "MEAN_ANOMALY": 277.4128,
        "EPHEMERIS_TYPE": 0,
        "CLASSIFICATION_TYPE": "U",
        "NORAD_CAT_ID": 46265,
        "ELEMENT_SET_NO": 999,
        "REV_AT_EPOCH": 31299,
        "BSTAR": 3.4975e-05,
        "MEAN_MOTION_DOT": 2.26e-06,
        "MEAN_MOTION_DDOT": 0
    },
    {
        "OBJECT_NAME": "CSS (TIANHE)",
        "OBJECT_ID": "2021-035A",
        "EPOCH": "2026-06-13T20:11:53.332800",
        "MEAN_MOTION": 15.60672813,
        "ECCENTRICITY": 0.0007804,
        "INCLINATION": 41.4695,
        "RA_OF_ASC_NODE": 342.3609,
        "ARG_OF_PERICENTER": 49.8258,
        "MEAN_ANOMALY": 310.3263,
        "EPHEMERIS_TYPE": 0,
        "CLASSIFICATION_TYPE": "U",
        "NORAD_CAT_ID": 48274,
        "ELEMENT_SET_NO": 999,
        "REV_AT_EPOCH": 29264,
        "BSTAR": 0.00028689,
        "MEAN_MOTION_DOT": 0.00024252,
        "MEAN_MOTION_DDOT": 0
    },
    {
        "OBJECT_NAME": "CZ-2C R/B",
        "OBJECT_ID": "2022-058K",
        "EPOCH": "2026-06-13T12:44:49.894656",
        "MEAN_MOTION": 15.61605462,
        "ECCENTRICITY": 0.0032703,
        "INCLINATION": 50.1836,
        "RA_OF_ASC_NODE": 182.539,
        "ARG_OF_PERICENTER": 252.8586,
        "MEAN_ANOMALY": 106.8805,
        "EPHEMERIS_TYPE": 0,
        "CLASSIFICATION_TYPE": "U",
        "NORAD_CAT_ID": 52794,
        "ELEMENT_SET_NO": 999,
        "REV_AT_EPOCH": 22507,
        "BSTAR": 0.00039469,
        "MEAN_MOTION_DOT": 0.00035189,
        "MEAN_MOTION_DDOT": 0
    },
    {
        "OBJECT_NAME": "CZ-2C R/B",
        "OBJECT_ID": "2022-132E",
        "EPOCH": "2026-06-13T14:04:04.389888",
        "MEAN_MOTION": 15.71113849,
        "ECCENTRICITY": 0.0016488,
        "INCLINATION": 97.2895,
        "RA_OF_ASC_NODE": 171.4506,
        "ARG_OF_PERICENTER": 95.2167,
        "MEAN_ANOMALY": 265.0978,
        "EPHEMERIS_TYPE": 0,
        "CLASSIFICATION_TYPE": "U",
        "NORAD_CAT_ID": 54039,
        "ELEMENT_SET_NO": 999,
        "REV_AT_EPOCH": 20538,
        "BSTAR": 0.00043279,
        "MEAN_MOTION_DOT": 0.00054947,
        "MEAN_MOTION_DDOT": 0
    }
]