SHIJIAN-16 (SJ-16)      
1 39358U 13057A   26164.88802869  .00000393  00000+0  41008-4 0  9993
2 39358  74.9733   2.9329 0016839 238.5368 121.4175 14.92598953685858
SL-4 R/B                
1 39679U 14021B   26164.43441138  .00010504  00000+0  21837-3 0  9992
2 39679  51.6053 229.1564 0091376  92.2944 268.8507 15.41884042671031
ALOS-2                  
1 39766U 14029A   26164.82515799  .00001499  00000+0  20749-3 0  9999
2 39766  97.9216 262.0365 0001603  89.5561 270.5834 14.79477981651081
YAOGAN-29               
1 41038U 15069A   26164.87187385 -.00000089  00000+0 -42718-5 0  9998
2 41038  98.0033 193.4992 0002771  59.3891 300.7595 14.83081356570134
ASTRO-H (HITOMI)        
1 41337U 16012A   26164.53198127  .00002491  00000+0  14180-3 0  9995
2 41337  30.9989  97.7930 0009739 217.5160 142.4799 15.10496033566738
HXMT (HUIYAN)           
1 42758U 17034A   26164.58229022  .00003909  00000+0  19572-3 0  9997
2 42758  43.0128 203.1146 0030272 123.5004 236.8744 15.18458559497119
SAOCOM 1A               
1 43641U 18076A   26164.82800277  .00000876  00000+0  11655-3 0  9994
2 43641  97.8883 351.6262 0001634  78.9348 281.2049 14.82148470415602
H-2A R/B                
1 43682U 18084L   26164.63112324  .00021353  00000+0  44948-3 0  9990
2 43682  98.8590  42.7447 0023820  52.4165 307.9238 15.45028112420579
SAOCOM 1B               
1 46265U 20059A   26164.85923622  .00000226  00000+0  34975-4 0  9996
2 46265  97.8885 350.7514 0001478  82.7253 277.4128 14.82167419312990
CSS (TIANHE)            
1 48274U 21035A   26164.84158950  .00024252  00000+0  28689-3 0  9995
2 48274  41.4695 342.3609 0007804  49.8258 310.3263 15.60672813292648
CZ-2C R/B               
1 52794U 22058K   26164.53113304  .00035189  00000+0  39469-3 0  9992
2 52794  50.1836 182.5390 0032703 252.8586 106.8805 15.61605462225071
CZ-2C R/B               
1 54039U 22132E   26164.58616192  .00054947  00000+0  43279-3 0  9994
2 54039  97.2895 171.4506 0016488  95.2167 265.0978 15.71113849205389
